{
	"ndm": {
		"omm": [
			{
				"header": {
					"CREATION_DATE": "",
					"ORIGINATOR": ""
				},
				"body": {
					"segment": {
						"metadata": {
							"OBJECT_NAME": "SL-4 R/B",
							"OBJECT_ID": "2023-165B",
							"CENTER_NAME": "EARTH",
							"REF_FRAME": "TEME",
							"TIME_SYSTEM": "UTC",
							"MEAN_ELEMENT_THEORY": "SGP4"
						},
						"data": {
							"meanElements": {
								"EPOCH": "2023-11-21T01:34:54.528096",
								"MEAN_MOTION": 15.10584482,
								"ECCENTRICITY": 0.0435702,
								"INCLINATION": 67.1418,
								"RA_OF_ASC_NODE": 40.7814,
								"ARG_OF_PERICENTER": 68.6404,
								"MEAN_ANOMALY": 296.0648
							},
							"tleParameters": {
								"EPHEMERIS_TYPE": 0,
								"CLASSIFICATION_TYPE": "U",
								"NORAD_CAT_ID": 58149,
								"ELEMENT_SET_NO": 999,
								"REV_AT_EPOCH": 374,
								"BSTAR": 0.00059699,
								"MEAN_MOTION_DOT": 0.00127444,
								"MEAN_MOTION_DDOT": 0.000007661
							}
						}
					}
				}
			},
			{
				"header": {
					"CREATION_DATE": "",
					"ORIGINATOR": ""
				},
				"body": {
					"segment": {
						"metadata": {
							"OBJECT_NAME": "STARLINK-30802",
							"OBJECT_ID": "2023-166A",
							"CENTER_NAME": "EARTH",
							"REF_FRAME": "TEME",
							"TIME_SYSTEM": "UTC",
							"MEAN_ELEMENT_THEORY": "SGP4"
						},
						"data": {
							"meanElements": {
								"EPOCH": "2023-11-20T22:00:00.999936",
								"MEAN_MOTION": 15.46719818,
								"ECCENTRICITY": 0.0000767,
								"INCLINATION": 53.0552,
								"RA_OF_ASC_NODE": 149.8583,
								"ARG_OF_PERICENTER": 89.1397,
								"MEAN_ANOMALY": 325.9569
							},
							"tleParameters": {
								"EPHEMERIS_TYPE": 0,
								"CLASSIFICATION_TYPE": "U",
								"NORAD_CAT_ID": 58150,
								"ELEMENT_SET_NO": 999,
								"REV_AT_EPOCH": 482,
								"BSTAR": -0.035698,
								"MEAN_MOTION_DOT": -0.0162727,
								"MEAN_MOTION_DDOT": 0
							}
						}
					}
				}
			},
			{
				"header": {
					"CREATION_DATE": "",
					"ORIGINATOR": ""
				},
				"body": {
					"segment": {
						"metadata": {
							"OBJECT_NAME": "STARLINK-30834",
							"OBJECT_ID": "2023-166B",
							"CENTER_NAME": "EARTH",
							"REF_FRAME": "TEME",
							"TIME_SYSTEM": "UTC",
							"MEAN_ELEMENT_THEORY": "SGP4"
						},
						"data": {
							"meanElements": {
								"EPOCH": "2023-11-20T22:00:00.999936",
								"MEAN_MOTION": 15.46719429,
								"ECCENTRICITY": 0.0000855,
								"INCLINATION": 53.0551,
								"RA_OF_ASC_NODE": 149.857,
								"ARG_OF_PERICENTER": 97.4544,
								"MEAN_ANOMALY": 318.23
							},
							"tleParameters": {
								"EPHEMERIS_TYPE": 0,
								"CLASSIFICATION_TYPE": "U",
								"NORAD_CAT_ID": 58151,
								"ELEMENT_SET_NO": 999,
								"REV_AT_EPOCH": 482,
								"BSTAR": -0.035725,
								"MEAN_MOTION_DOT": -0.01628391,
								"MEAN_MOTION_DDOT": 0
							}
						}
					}
				}
			},
			{
				"header": {
					"CREATION_DATE": "",
					"ORIGINATOR": ""
				},
				"body": {
					"segment": {
						"metadata": {
							"OBJECT_NAME": "STARLINK-30833",
							"OBJECT_ID": "2023-166C",
							"CENTER_NAME": "EARTH",
							"REF_FRAME": "TEME",
							"TIME_SYSTEM": "UTC",
							"MEAN_ELEMENT_THEORY": "SGP4"
						},
						"data": {
							"meanElements": {
								"EPOCH": "2023-11-21T06:00:00.999648",
								"MEAN_MOTION": 15.4554293,
								"ECCENTRICITY": 0.0001013,
								"INCLINATION": 53.0547,
								"RA_OF_ASC_NODE": 148.2627,
								"ARG_OF_PERICENTER": 93.8239,
								"MEAN_ANOMALY": 19.4443
							},
							"tleParameters": {
								"EPHEMERIS_TYPE": 0,
								"CLASSIFICATION_TYPE": "U",
								"NORAD_CAT_ID": 58152,
								"ELEMENT_SET_NO": 999,
								"REV_AT_EPOCH": 483,
								"BSTAR": -0.038052,
								"MEAN_MOTION_DOT": -0.01661279,
								"MEAN_MOTION_DDOT": 0
							}
						}
					}
				}
			},
			{
				"header": {
					"CREATION_DATE": "",
					"ORIGINATOR": ""
				},
				"body": {
					"segment": {
						"metadata": {
							"OBJECT_NAME": "STARLINK-30831",
							"OBJECT_ID": "2023-166D",
							"CENTER_NAME": "EARTH",
							"REF_FRAME": "TEME",
							"TIME_SYSTEM": "UTC",
							"MEAN_ELEMENT_THEORY": "SGP4"
						},
						"data": {
							"meanElements": {
								"EPOCH": "2023-11-20T22:00:00.999936",
								"MEAN_MOTION": 15.46713696,
								"ECCENTRICITY": 0.0000798,
								"INCLINATION": 53.055,
								"RA_OF_ASC_NODE": 149.8531,
								"ARG_OF_PERICENTER": 78.4122,
								"MEAN_ANOMALY": 339.0385
							},
							"tleParameters": {
								"EPHEMERIS_TYPE": 0,
								"CLASSIFICATION_TYPE": "U",
								"NORAD_CAT_ID": 58153,
								"ELEMENT_SET_NO": 999,
								"REV_AT_EPOCH": 482,
								"BSTAR": -0.035699,
								"MEAN_MOTION_DOT": -0.01627012,
								"MEAN_MOTION_DDOT": 0
							}
						}
					}
				}
			},
			{
				"header": {
					"CREATION_DATE": "",
					"ORIGINATOR": ""
				},
				"body": {
					"segment": {
						"metadata": {
							"OBJECT_NAME": "STARLINK-30797",
							"OBJECT_ID": "2023-166E",
							"CENTER_NAME": "EARTH",
							"REF_FRAME": "TEME",
							"TIME_SYSTEM": "UTC",
							"MEAN_ELEMENT_THEORY": "SGP4"
						},
						"data": {
							"meanElements": {
								"EPOCH": "2023-11-21T06:00:00.999648",
								"MEAN_MOTION": 15.45546402,
								"ECCENTRICITY": 0.0001088,
								"INCLINATION": 53.0547,
								"RA_OF_ASC_NODE": 148.2639,
								"ARG_OF_PERICENTER": 94.9776,
								"MEAN_ANOMALY": 17.7039
							},
							"tleParameters": {
								"EPHEMERIS_TYPE": 0,
								"CLASSIFICATION_TYPE": "U",
								"NORAD_CAT_ID": 58154,
								"ELEMENT_SET_NO": 999,
								"REV_AT_EPOCH": 460,
								"BSTAR": -0.038207,
								"MEAN_MOTION_DOT": -0.01667546,
								"MEAN_MOTION_DDOT": 0
							}
						}
					}
				}
			},
			{
				"header": {
					"CREATION_DATE": "",
					"ORIGINATOR": ""
				},
				"body": {
					"segment": {
						"metadata": {
							"OBJECT_NAME": "STARLINK-30804",
							"OBJECT_ID": "2023-166F",
							"CENTER_NAME": "EARTH",
							"REF_FRAME": "TEME",
							"TIME_SYSTEM": "UTC",
							"MEAN_ELEMENT_THEORY": "SGP4"
						},
						"data": {
							"meanElements": {
								"EPOCH": "2023-11-20T22:00:00.999936",
								"MEAN_MOTION": 15.46712184,
								"ECCENTRICITY": 0.0000784,
								"INCLINATION": 53.0551,
								"RA_OF_ASC_NODE": 149.8522,
								"ARG_OF_PERICENTER": 78.9067,
								"MEAN_ANOMALY": 339.1322
							},
							"tleParameters": {
								"EPHEMERIS_TYPE": 0,
								"CLASSIFICATION_TYPE": "U",
								"NORAD_CAT_ID": 58155,
								"ELEMENT_SET_NO": 999,
								"REV_AT_EPOCH": 482,
								"BSTAR": -0.035692,
								"MEAN_MOTION_DOT": -0.01626643,
								"MEAN_MOTION_DDOT": 0
							}
						}
					}
				}
			},
			{
				"header": {
					"CREATION_DATE": "",
					"ORIGINATOR": ""
				},
				"body": {
					"segment": {
						"metadata": {
							"OBJECT_NAME": "STARLINK-30784",
							"OBJECT_ID": "2023-166G",
							"CENTER_NAME": "EARTH",
							"REF_FRAME": "TEME",
							"TIME_SYSTEM": "UTC",
							"MEAN_ELEMENT_THEORY": "SGP4"
						},
						"data": {
							"meanElements": {
								"EPOCH": "2023-11-20T22:00:00.999936",
								"MEAN_MOTION": 15.46709756,
								"ECCENTRICITY": 0.0000837,
								"INCLINATION": 53.0551,
								"RA_OF_ASC_NODE": 149.8494,
								"ARG_OF_PERICENTER": 79.1901,
								"MEAN_ANOMALY": 340.0257
							},
							"tleParameters": {
								"EPHEMERIS_TYPE": 0,
								"CLASSIFICATION_TYPE": "U",
								"NORAD_CAT_ID": 58156,
								"ELEMENT_SET_NO": 999,
								"REV_AT_EPOCH": 467,
								"BSTAR": -0.035713,
								"MEAN_MOTION_DOT": -0.016274,
								"MEAN_MOTION_DDOT": 0
							}
						}
					}
				}
			},
			{
				"header": {
					"CREATION_DATE": "",
					"ORIGINATOR": ""
				},
				"body": {
					"segment": {
						"metadata": {
							"OBJECT_NAME": "STARLINK-30803",
							"OBJECT_ID": "2023-166H",
							"CENTER_NAME": "EARTH",
							"REF_FRAME": "TEME",
							"TIME_SYSTEM": "UTC",
							"MEAN_ELEMENT_THEORY": "SGP4"
						},
						"data": {
							"meanElements": {
								"EPOCH": "2023-11-21T04:00:00.999936",
								"MEAN_MOTION": 15.4585354,
								"ECCENTRICITY": 0.0000797,
								"INCLINATION": 53.0545,
								"RA_OF_ASC_NODE": 148.6568,
								"ARG_OF_PERICENTER": 98.5245,
								"MEAN_ANOMALY": 272.5309
							},
							"tleParameters": {
								"EPHEMERIS_TYPE": 0,
								"CLASSIFICATION_TYPE": "U",
								"NORAD_CAT_ID": 58157,
								"ELEMENT_SET_NO": 999,
								"REV_AT_EPOCH": 459,
								"BSTAR": -0.038307,
								"MEAN_MOTION_DOT": -0.01687283,
								"MEAN_MOTION_DDOT": 0
							}
						}
					}
				}
			},
			{
				"header": {
					"CREATION_DATE": "",
					"ORIGINATOR": ""
				},
				"body": {
					"segment": {
						"metadata": {
							"OBJECT_NAME": "STARLINK-30829",
							"OBJECT_ID": "2023-166J",
							"CENTER_NAME": "EARTH",
							"REF_FRAME": "TEME",
							"TIME_SYSTEM": "UTC",
							"MEAN_ELEMENT_THEORY": "SGP4"
						},
						"data": {
							"meanElements": {
								"EPOCH": "2023-11-20T22:00:00.999936",
								"MEAN_MOTION": 15.46709186,
								"ECCENTRICITY": 0.0000799,
								"INCLINATION": 53.0551,
								"RA_OF_ASC_NODE": 149.8483,
								"ARG_OF_PERICENTER": 88.3558,
								"MEAN_ANOMALY": 331.4475
							},
							"tleParameters": {
								"EPHEMERIS_TYPE": 0,
								"CLASSIFICATION_TYPE": "U",
								"NORAD_CAT_ID": 58158,
								"ELEMENT_SET_NO": 999,
								"REV_AT_EPOCH": 482,
								"BSTAR": -0.035725,
								"MEAN_MOTION_DOT": -0.01627846,
								"MEAN_MOTION_DDOT": 0
							}
						}
					}
				}
			}
		]
	}
}